{
  "type": "FeatureCollection",
  "features": [
    {
      "type": "Feature",
      "properties": {
        "norad_id": 44709,
        "name": "BEIDOU-3 IGSO-3 (C40)",
        "group": "gnss",
        "lat": -29.601573172867646,
        "lon": 126.22989397893492,
        "alt_km": 35627.82099702594,
        "timestamp": "2025-12-05T20:43:02.301318+00:00",
        "meta_object_name": "BEIDOU-3 IGSO-3 (C40)",
        "meta_object_id": "2019-073A",
        "meta_epoch": "2025-11-20T07:11:22.740000",
        "meta_mean_motion": 1.00250097,
        "meta_eccentricity": 0.0044538,
        "meta_inclination": 55.163,
        "meta_ra_of_asc_node": 283.159,
        "meta_arg_of_pericenter": 191.5856,
        "meta_mean_anomaly": 168.2409,
        "meta_ephemeris_type": 0,
        "meta_classification_type": "U",
        "meta_norad_cat_id": 44709,
        "meta_element_set_no": 999,
        "meta_rev_at_epoch": 2236,
        "meta_bstar": 0,
        "meta_mean_motion_dot": -2.06e-06,
        "meta_mean_motion_ddot": 0,
        "tle_line1": "1 44709U 19073A   25324.29956875 -.00000206  00000+0  00000+0 0  9998",
        "tle_line2": "2 44709  55.1630 283.1590 0044538 191.5856 168.2409  1.00250097 22360"
      },
      "geometry": {
        "type": "Point",
        "coordinates": [
          126.22989397893492,
          -29.601573172867646
        ]
      }
    },
    {
      "type": "Feature",
      "properties": {
        "norad_id": 44793,
        "name": "BEIDOU-3 M22 (C44)",
        "group": "gnss",
        "lat": 42.62368767314877,
        "lon": -11.648324326457475,
        "alt_km": 21509.58239428444,
        "timestamp": "2025-12-05T20:43:02.301333+00:00",
        "meta_object_name": "BEIDOU-3 M22 (C44)",
        "meta_object_id": "2019-078A",
        "meta_epoch": "2025-12-05T05:48:12.091968",
        "meta_mean_motion": 1.86231803,
        "meta_eccentricity": 0.00057198,
        "meta_inclination": 54.1154,
        "meta_ra_of_asc_node": 306.6493,
        "meta_arg_of_pericenter": 22.8272,
        "meta_mean_anomaly": 337.1804,
        "meta_ephemeris_type": 0,
        "meta_classification_type": "U",
        "meta_norad_cat_id": 44793,
        "meta_element_set_no": 999,
        "meta_rev_at_epoch": 4103,
        "meta_bstar": 0,
        "meta_mean_motion_dot": -6.9e-07,
        "meta_mean_motion_ddot": 0,
        "tle_line1": "1 44793U 19078A   25339.24180662 -.00000069  00000+0  00000+0 0  9997",
        "tle_line2": "2 44793  54.1154 306.6493 0005719  22.8272 337.1804  1.86231803 41031"
      },
      "geometry": {
        "type": "Point",
        "coordinates": [
          -11.648324326457475,
          42.62368767314877
        ]
      }
    },
    {
      "type": "Feature",
      "properties": {
        "norad_id": 44794,
        "name": "BEIDOU-3 M21 (C43)",
        "group": "gnss",
        "lat": -28.119673384006077,
        "lon": -76.19991465187483,
        "alt_km": 21524.367777549134,
        "timestamp": "2025-12-05T20:43:02.301344+00:00",
        "meta_object_name": "BEIDOU-3 M21 (C43)",
        "meta_object_id": "2019-078B",
        "meta_epoch": "2025-12-04T20:12:58.826592",
        "meta_mean_motion": 1.8622755,
        "meta_eccentricity": 0.00039728,
        "meta_inclination": 54.0888,
        "meta_ra_of_asc_node": 306.6286,
        "meta_arg_of_pericenter": 10.8918,
        "meta_mean_anomaly": 349.0991,
        "meta_ephemeris_type": 0,
        "meta_classification_type": "U",
        "meta_norad_cat_id": 44794,
        "meta_element_set_no": 999,
        "meta_rev_at_epoch": 4103,
        "meta_bstar": 0,
        "meta_mean_motion_dot": -6.9e-07,
        "meta_mean_motion_ddot": 0,
        "tle_line1": "1 44794U 19078B   25338.84234753 -.00000069  00000+0  00000+0 0  9994",
        "tle_line2": "2 44794  54.0888 306.6286 0003972  10.8918 349.0991  1.86227550 41031"
      },
      "geometry": {
        "type": "Point",
        "coordinates": [
          -76.19991465187483,
          -28.119673384006077
        ]
      }
    },
    {
      "type": "Feature",
      "properties": {
        "norad_id": 44850,
        "name": "COSMOS 2544 (759)",
        "group": "gnss",
        "lat": 44.261014397690985,
        "lon": -126.20183926760868,
        "alt_km": 19141.914055211044,
        "timestamp": "2025-12-05T20:43:02.301355+00:00",
        "meta_object_name": "COSMOS 2544 (759)",
        "meta_object_id": "2019-088A",
        "meta_epoch": "2025-12-05T05:23:01.061376",
        "meta_mean_motion": 2.13101771,
        "meta_eccentricity": 0.00137772,
        "meta_inclination": 65.456,
        "meta_ra_of_asc_node": 80.2099,
        "meta_arg_of_pericenter": 249.1354,
        "meta_mean_anomaly": 110.7187,
        "meta_ephemeris_type": 0,
        "meta_classification_type": "U",
        "meta_norad_cat_id": 44850,
        "meta_element_set_no": 999,
        "meta_rev_at_epoch": 4658,
        "meta_bstar": 0,
        "meta_mean_motion_dot": -2e-07,
        "meta_mean_motion_ddot": 0,
        "tle_line1": "1 44850U 19088A   25339.22431784 -.00000020  00000+0  00000+0 0  9991",
        "tle_line2": "2 44850  65.4560  80.2099 0013777 249.1354 110.7187  2.13101771 46581"
      },
      "geometry": {
        "type": "Point",
        "coordinates": [
          -126.20183926760868,
          44.261014397690985
        ]
      }
    },
    {
      "type": "Feature",
      "properties": {
        "norad_id": 44864,
        "name": "BEIDOU-3 M19 (C41)",
        "group": "gnss",
        "lat": 16.561189929326577,
        "lon": -122.19290592513666,
        "alt_km": 21554.149257644465,
        "timestamp": "2025-12-05T20:43:02.301374+00:00",
        "meta_object_name": "BEIDOU-3 M19 (C41)",
        "meta_object_id": "2019-090A",
        "meta_epoch": "2025-12-02T22:27:31.551840",
        "meta_mean_motion": 1.86231053,
        "meta_eccentricity": 0.00175607,
        "meta_inclination": 56.3847,
        "meta_ra_of_asc_node": 69.2872,
        "meta_arg_of_pericenter": 284.9296,
        "meta_mean_anomaly": 72.494,
        "meta_ephemeris_type": 0,
        "meta_classification_type": "U",
        "meta_norad_cat_id": 44864,
        "meta_element_set_no": 999,
        "meta_rev_at_epoch": 4057,
        "meta_bstar": 0,
        "meta_mean_motion_dot": -4.9e-07,
        "meta_mean_motion_ddot": 0,
        "tle_line1": "1 44864U 19090A   25336.93578185 -.00000049  00000+0  00000+0 0  9992",
        "tle_line2": "2 44864  56.3847  69.2872 0017560 284.9296  72.4940  1.86231053 40575"
      },
      "geometry": {
        "type": "Point",
        "coordinates": [
          -122.19290592513666,
          16.561189929326577
        ]
      }
    },
    {
      "type": "Feature",
      "properties": {
        "norad_id": 44865,
        "name": "BEIDOU-3 M20 (C42)",
        "group": "gnss",
        "lat": -51.34840605115516,
        "lon": -54.6382822806477,
        "alt_km": 21506.349027513515,
        "timestamp": "2025-12-05T20:43:02.301388+00:00",
        "meta_object_name": "BEIDOU-3 M20 (C42)",
        "meta_object_id": "2019-090B",
        "meta_epoch": "2025-12-03T10:37:23.867040",
        "meta_mean_motion": 1.86231029,
        "meta_eccentricity": 0.00147135,
        "meta_inclination": 56.3867,
        "meta_ra_of_asc_node": 69.3045,
        "meta_arg_of_pericenter": 297.7194,
        "meta_mean_anomaly": 129.1388,
        "meta_ephemeris_type": 0,
        "meta_classification_type": "U",
        "meta_norad_cat_id": 44865,
        "meta_element_set_no": 999,
        "meta_rev_at_epoch": 4057,
        "meta_bstar": 0,
        "meta_mean_motion_dot": -5e-07,
        "meta_mean_motion_ddot": 0,
        "tle_line1": "1 44865U 19090B   25337.44263735 -.00000050  00000+0  00000+0 0  9994",
        "tle_line2": "2 44865  56.3867  69.3045 0014713 297.7194 129.1388  1.86231029 40576"
      },
      "geometry": {
        "type": "Point",
        "coordinates": [
          -54.6382822806477,
          -51.34840605115516
        ]
      }
    },
    {
      "type": "Feature",
      "properties": {
        "norad_id": 45344,
        "name": "BEIDOU-3 G2 (C60)",
        "group": "gnss",
        "lat": 2.6600922003110825,
        "lon": 105.69362290335995,
        "alt_km": 35804.70317784187,
        "timestamp": "2025-12-05T20:43:02.301400+00:00",
        "meta_object_name": "BEIDOU-3 G2 (C60)",
        "meta_object_id": "2020-017A",
        "meta_epoch": "2025-12-04T17:58:38.677728",
        "meta_mean_motion": 1.00270166,
        "meta_eccentricity": 0.00047217,
        "meta_inclination": 2.9855,
        "meta_ra_of_asc_node": 43.5954,
        "meta_arg_of_pericenter": 263.9725,
        "meta_mean_anomaly": 115.9595,
        "meta_ephemeris_type": 0,
        "meta_classification_type": "U",
        "meta_norad_cat_id": 45344,
        "meta_element_set_no": 999,
        "meta_rev_at_epoch": 2131,
        "meta_bstar": 0,
        "meta_mean_motion_dot": -1.29e-06,
        "meta_mean_motion_ddot": 0,
        "tle_line1": "1 45344U 20017A   25338.74905877 -.00000129  00000+0  00000+0 0  9999",
        "tle_line2": "2 45344   2.9855  43.5954 0004721 263.9725 115.9595  1.00270166 21314"
      },
      "geometry": {
        "type": "Point",
        "coordinates": [
          105.69362290335995,
          2.6600922003110825
        ]
      }
    }
  ]
}